{"response":{"version":"0.1","termsofService":"http://www.wunderground.com/weather/api/d/terms.html","features":{"history":1}},"history":{"date":{"pretty":"May 6, 2018","year":"2018","mon":"05","mday":"06","hour":"00","min":"56","tzname":"Europe/Berlin"},"utcdate":{"pretty":"May 5, 2018","year":"2018","mon":"05","mday":"05","hour":"22","min":"56","tzname":"UTC"},"observations":[{"date":{"pretty":"12:56 AM CEST on May 06, 2018","year":"2018","mon":"05","mday":"06","hour":"00","min":"56","tzname":"Europe/Berlin"},"utcdate":{"pretty":"10:56 PM GMT on May 05, 2018","year":"2018","mon":"05","mday":"05","hour":"22","min":"56","tzname":"UTC"},"tempm":"16.3","tempi":"61.3","dewptm":"5.6","dewpti":"42.1","hum":"49","wspdm":"11.1","wspdi":"6.9","wgustm":"-9999.0","wgusti":"-9999.0","wdird":"60","wdire":"ENE","vism":"10.0","visi":"6.2","pressurem":"1022.9","pressurei":"30.21","windchillm":"-999","windchilli":"-999","heatindexm":"-9999","heatindexi":"-9999","precipm":"-9999.00","precipi":"-9999.00","conds":"Clear","icon":"clear","fog":"0","rain":"0","snow":"0","hail":"0","thunder":"0","tornado":"0","metar":"METAR ETOU 052256Z AUTO 06006KT 9999 CLR 16/06 A3021 RMK AO2 SLP229 T01630056 402300104 $"},{"date":{"pretty":"1:56 AM CEST on May 06, 2018","year":"2018","mon":"05","mday":"06","hour":"01","min":"56","tzname":"Europe/Berlin"},"utcdate":{"pretty":"11:56 PM GMT on May 05, 2018","year":"2018","mon":"05","mday":"05","hour":"23","min":"56","tzname":"UTC"},"tempm":"16.0","tempi":"60.8","dewptm":"5.6","dewpti":"42.1","hum":"50","wspdm":"11.1","wspdi":"6.9","wgustm":"-9999.0","wgusti":"-9999.0","wdird":"70","wdire":"ENE","vism":"10.0","visi":"6.2","pressurem":"1022.5","pressurei":"30.20","windchillm":"-999","windchilli":"-999","heatindexm":"-9999","heatindexi":"-9999","precipm":"-9999.00","precipi":"-9999.00","conds":"Clear","icon":"clear","fog":"0","rain":"0","snow":"0","hail":"0","thunder":"0","tornado":"0","metar":"METAR ETOU 052356Z AUTO 07006KT 9999 CLR 16/06 A3020 RMK AO2 SLP225 T01600056 10208 20159 50003 $"},{"date":{"pretty":"2:56 AM CEST on May 06, 2018","year":"2018","mon":"05","mday":"06","hour":"02","min":"56","tzname":"Europe/Berlin"},"utcdate":{"pretty":"12:56 AM GMT on May 06, 2018","year":"2018","mon":"05","mday":"06","hour":"00","min":"56","tzname":"UTC"},"tempm":"15.5","tempi":"59.9","dewptm":"5.1","dewpti":"41.2","hum":"50","wspdm":"9.3","wspdi":"5.8","wgustm":"-9999.0","wgusti":"-9999.0","wdird":"80","wdire":"East","vism":"10.0","visi":"6.2","pressurem":"1022.9","pressurei":"30.21","windchillm":"-999","windchilli":"-999","heatindexm":"-9999","heatindexi":"-9999","precipm":"-9999.00","precipi":"-9999.00","conds":"Clear","icon":"clear","fog":"0","rain":"0","snow":"0","hail":"0","thunder":"0","tornado":"0","metar":"METAR ETOU 060056Z AUTO 08005KT 9999 CLR 16/05 A3021 RMK AO2 SLP229 T01550051 $"},{"date":{"pretty":"3:56 AM CEST on May 06, 2018","year":"2018","mon":"05","mday":"06","hour":"03","min":"56","tzname":"Europe/Berlin"},"utcdate":{"pretty":"1:56 AM GMT on May 06, 2018","year":"2018","mon":"05","mday":"06","hour":"01","min":"56","tzname":"UTC"},"tempm":"15.0","tempi":"59.0","dewptm":"4.9","dewpti":"40.8","hum":"51","wspdm":"11.1","wspdi":"6.9","wgustm":"-9999.0","wgusti":"-9999.0","wdird":"70","wdire":"ENE","vism":"10.0","visi":"6.2","pressurem":"1022.9","pressurei":"30.21","windchillm":"-999","windchilli":"-999","heatindexm":"-9999","heatindexi":"-9999","precipm":"-9999.00","precipi":"-9999.00","conds":"Clear","icon":"clear","fog":"0","rain":"0","snow":"0","hail":"0","thunder":"0","tornado":"0","metar":"METAR ETOU 060156Z AUTO 07006KT 9999 CLR 15/05 A3021 RMK AO2 SLP229 T01500049 $"},{"date":{"pretty":"4:56 AM CEST on May 06, 2018","year":"2018","mon":"05","mday":"06","hour":"04","min":"56","tzname":"Europe/Berlin"},"utcdate":{"pretty":"2:56 AM GMT on May 06, 2018","year":"2018","mon":"05","mday":"06","hour":"02","min":"56","tzname":"UTC"},"tempm":"14.5","tempi":"58.1","dewptm":"3.6","dewpti":"38.5","hum":"48","wspdm":"5.6","wspdi":"3.5","wgustm":"-9999.0","wgusti":"-9999.0","wdird":"70","wdire":"ENE","vism":"10.0","visi":"6.2","pressurem":"1023.2","pressurei":"30.22","windchillm":"-999","windchilli":"-999","heatindexm":"-9999","heatindexi":"-9999","precipm":"-9999.00","precipi":"-9999.00","conds":"Clear","icon":"clear","fog":"0","rain":"0","snow":"0","hail":"0","thunder":"0","tornado":"0","metar":"METAR ETOU 060256Z AUTO 07003KT 9999 CLR 15/04 A3022 RMK AO2 SLP232 T01450036 52004 $"},{"date":{"pretty":"5:56 AM CEST on May 06, 2018","year":"2018","mon":"05","mday":"06","hour":"05","min":"56","tzname":"Europe/Berlin"},"utcdate":{"pretty":"3:56 AM GMT on May 06, 2018","year":"2018","mon":"05","mday":"06","hour":"03","min":"56","tzname":"UTC"},"tempm":"14.1","tempi":"57.4","dewptm":"2.3","dewpti":"36.1","hum":"45","wspdm":"13.0","wspdi":"8.1","wgustm":"-9999.0","wgusti":"-9999.0","wdird":"80","wdire":"East","vism":"10.0","visi":"6.2","pressurem":"1023.3","pressurei":"30.22","windchillm":"-999","windchilli":"-999","heatindexm":"-9999","heatindexi":"-9999","precipm":"-9999.00","precipi":"-9999.00","conds":"Clear","icon":"clear","fog":"0","rain":"0","snow":"0","hail":"0","thunder":"0","tornado":"0","metar":"METAR ETOU 060356Z AUTO 08007KT 9999 CLR 14/02 A3022 RMK AO2 SLP233 T01410023 $"},{"date":{"pretty":"6:56 AM CEST on May 06, 2018","year":"2018","mon":"05","mday":"06","hour":"06","min":"56","tzname":"Europe/Berlin"},"utcdate":{"pretty":"4:56 AM GMT on May 06, 2018","year":"2018","mon":"05","mday":"06","hour":"04","min":"56","tzname":"UTC"},"tempm":"13.9","tempi":"57.0","dewptm":"2.5","dewpti":"36.5","hum":"46","wspdm":"9.3","wspdi":"5.8","wgustm":"-9999.0","wgusti":"-9999.0","wdird":"80","wdire":"East","vism":"10.0","visi":"6.2","pressurem":"1023.6","pressurei":"30.23","windchillm":"-999","windchilli":"-999","heatindexm":"-9999","heatindexi":"-9999","precipm":"-9999.00","precipi":"-9999.00","conds":"Clear","icon":"clear","fog":"0","rain":"0","snow":"0","hail":"0","thunder":"0","tornado":"0","metar":"METAR ETOU 060456Z AUTO 08005KT 9999 CLR 14/03 A3023 RMK AO2 SLP236 T01390025 $"},{"date":{"pretty":"7:56 AM CEST on May 06, 2018","year":"2018","mon":"05","mday":"06","hour":"07","min":"56","tzname":"Europe/Berlin"},"utcdate":{"pretty":"5:56 AM GMT on May 06, 2018","year":"2018","mon":"05","mday":"06","hour":"05","min":"56","tzname":"UTC"},"tempm":"15.2","tempi":"59.4","dewptm":"2.4","dewpti":"36.3","hum":"42","wspdm":"13.0","wspdi":"8.1","wgustm":"-9999.0","wgusti":"-9999.0","wdird":"80","wdire":"East","vism":"10.0","visi":"6.2","pressurem":"1023.3","pressurei":"30.22","windchillm":"-999","windchilli":"-999","heatindexm":"-9999","heatindexi":"-9999","precipm":"-9999.00","precipi":"-9999.00","conds":"Clear","icon":"clear","fog":"0","rain":"0","snow":"0","hail":"0","thunder":"0","tornado":"0","metar":"METAR ETOU 060556Z AUTO 08007KT 9999 CLR 15/02 A3022 RMK AO2 SLP233 T01520024 10159 20133 50002 $"},{"date":{"pretty":"8:56 AM CEST on May 06, 2018","year":"2018","mon":"05","mday":"06","hour":"08","min":"56","tzname":"Europe/Berlin"},"utcdate":{"pretty":"6:56 AM GMT on May 06, 2018","year":"2018","mon":"05","mday":"06","hour":"06","min":"56","tzname":"UTC"},"tempm":"16.5","tempi":"61.7","dewptm":"2.1","dewpti":"35.8","hum":"38","wspdm":"14.8","wspdi":"9.2","wgustm":"-9999.0","wgusti":"-9999.0","wdird":"90","wdire":"East","vism":"10.0","visi":"6.2","pressurem":"1023.6","pressurei":"30.23","windchillm":"-999","windchilli":"-999","heatindexm":"-9999","heatindexi":"-9999","precipm":"-9999.00","precipi":"-9999.00","conds":"Clear","icon":"clear","fog":"0","rain":"0","snow":"0","hail":"0","thunder":"0","tornado":"0","metar":"METAR ETOU 060656Z AUTO 09008KT 9999 CLR 17/02 A3023 RMK AO2 SLP236 T01650021 $"}],"dailysummary":[{"date":{"pretty":"12:56 AM CEST on May 06, 2018","year":"2018","mon":"05","mday":"06","hour":"00","min":"56","tzname":"Europe/Berlin"},"fog":"0","rain":"0","snow":"0","snowfallm":"","snowfalli":"","monthtodatesnowfallm":"","monthtodatesnowfalli":"","since1julsnowfallm":"","since1julsnowfalli":"","snowdepthm":"","snowdepthi":"","hail":"0","thunder":"0","tornado":"0","meantempm":"14","meantempi":"59","meandewptm":"4","meandewpti":"39","meanpressurem":"1023.13","meanpressurei":"30.22","meanwindspdm":"9","meanwindspdi":"5","meanwdire":"ENE","meanwdird":"76","meanvism":"10.0","meanvisi":"6.2","humidity":"47","maxtempm":"16","maxtempi":"61","mintempm":"13","mintempi":"57","maxhumidity":"51","minhumidity":"38","maxdewptm":"6","maxdewpti":"42","mindewptm":"2","mindewpti":"36","maxpressurem":"1024","maxpressurei":"30.23","minpressurem":"1022","minpressurei":"30.20","maxwspdm":"15","maxwspdi":"9","minwspdm":"6","minwspdi":"4","maxvism":"10.0","maxvisi":"6.2","minvism":"10.0","minvisi":"6.2","gdegreedays":"9","heatingdegreedays":"6","coolingdegreedays":"0","precipm":"0.0","precipi":"0.00","precipsource":"3Or6HourObs","heatingdegreedaysnormal":"","monthtodateheatingdegreedays":"","monthtodateheatingdegreedaysnormal":"","since1sepheatingdegreedays":"","since1sepheatingdegreedaysnormal":"","since1julheatingdegreedays":"","since1julheatingdegreedaysnormal":"","coolingdegreedaysnormal":"","monthtodatecoolingdegreedays":"","monthtodatecoolingdegreedaysnormal":"","since1sepcoolingdegreedays":"","since1sepcoolingdegreedaysnormal":"","since1jancoolingdegreedays":"","since1jancoolingdegreedaysnormal":""}]}}